OBJECT_NAME,OBJECT_ID,EPOCH,MEAN_MOTION,ECCENTRICITY,INCLINATION,RA_OF_ASC_NODE,ARG_OF_PERICENTER,MEAN_ANOMALY,EPHEMERIS_TYPE,CLASSIFICATION_TYPE,NORAD_CAT_ID,ELEMENT_SET_NO,REV_AT_EPOCH,BSTAR,MEAN_MOTION_DOT,MEAN_MOTION_DDOT
SWARM A,2013-067B,2026-06-29T11:28:20.485632,15.51181711,.000318,87.3314,51.6743,97.4132,262.7491,0,U,39452,999,70815,.15795E-3,.9266E-4,0
SWARM C,2013-067C,2026-06-29T11:28:11.664192,15.51180858,.0003179,87.3313,50.2554,97.5816,262.5806,0,U,39453,999,70811,.16158E-3,.9478E-4,0
BRITE-CA1 (TORONTO),2014-033L,2026-06-29T08:03:25.497792,14.72695672,.0077443,97.9753,309.0406,237.4573,121.9137,0,U,40020,999,64400,.14871E-3,.94E-5,0
OCO 2,2014-035A,2026-06-29T12:22:59.454624,14.57120874,.000149,98.2020,121.6214,82.3797,277.7571,0,U,40059,999,63784,.95602E-4,.386E-5,0
BRITE-PL2 (HEWELIUSZ),2014-049B,2026-06-29T13:23:10.546944,14.94638190,.0015221,97.9110,292.6539,70.6240,289.6624,0,U,40119,999,64329,.14459E-3,.151E-4,0
MMS 1,2015-011A,2026-06-29T14:00:01.999008,0.28368149,.8316824,72.2833,348.6564,167.6221,123.2126,0,U,40482,999,138,0,-.975E-5,0
MMS 2,2015-011B,2026-06-29T14:00:01.999008,0.28368247,.8319683,72.2875,348.6554,167.6254,123.2020,0,U,40483,999,138,0,-.976E-5,0
MMS 3,2015-011C,2026-06-29T14:00:01.999008,0.28368110,.8318001,72.2869,348.6673,167.6328,123.1767,0,U,40484,999,138,0,-.975E-5,0
MMS 4,2015-011D,2026-06-29T14:00:01.999008,0.28368126,.8317909,72.2832,348.6506,167.6426,123.1698,0,U,40485,999,138,0,-.975E-5,0
ASTROSAT,2015-052A,2026-06-29T04:48:53.479008,14.82527211,.0008265,5.9972,68.8667,210.7486,149.2157,0,U,40930,999,58161,.11799E-3,.1642E-4,0
DAMPE,2015-078A,2026-06-29T12:32:53.295648,15.30817912,.0013231,97.4554,186.0506,38.7895,321.4293,0,U,41173,999,58643,.56375E-4,.1604E-4,0
PISAT,2016-059B,2026-06-29T12:59:01.262112,14.69004080,.0029434,97.8180,180.4629,163.1720,197.0470,0,U,41784,999,52155,.16531E-3,.928E-5,0
HXMT (HUIYAN),2017-034A,2026-06-29T07:16:26.143104,15.18561015,.0032417,43.0141,115.5715,223.8490,135.9784,0,U,42758,999,49950,.20762E-3,.4184E-4,0
FLYING LAPTOP,2017-042G,2026-06-29T12:24:19.036800,15.01224086,.001997,97.4736,335.5789,82.2271,278.1220,0,U,42831,999,48830,.29208E-3,.3708E-4,0
ZHANGHENG 1-01 (CSES-1),2018-015C,2026-06-29T12:11:39.501312,15.20967649,.0017545,97.6873,346.4115,220.6538,139.3388,0,U,43194,999,46651,.29507E-3,.649E-4,0
SALSAT,2020-068K,2026-06-28T23:37:04.859328,15.29961615,.00078707,97.8845,183.7681,257.4321,102.6038,0,U,46495,999,31716,.23731316E-3,.6804E-4,0
IXPE,2021-121A,2026-06-29T12:00:02.998944,15.10361740,.0006999,0.2284,224.4340,262.1328,224.3688,0,U,49954,999,547,.55593E-3,.10333E-3,0
SMILE,2026-109A,2026-06-07T09:11:54.544416,7.54049028,.3310191,69.9787,209.3069,288.5544,45.7342,0,U,69123,999,248,-.36778157E-3,-.41E-6,0
