SWARM A                 
1 39452U 13067B   26180.47801488  .00009266  00000+0  15795-3 0  9999
2 39452  87.3314  51.6743 0003180  97.4132 262.7491 15.51181711708158
SWARM C                 
1 39453U 13067C   26180.47791278  .00009478  00000+0  16158-3 0  9994
2 39453  87.3313  50.2554 0003179  97.5816 262.5806 15.51180858708116
BRITE-CA1 (TORONTO)     
1 40020U 14033L   26180.33571178  .00000940  00000+0  14871-3 0  9995
2 40020  97.9753 309.0406 0077443 237.4573 121.9137 14.72695672644003
OCO 2                   
1 40059U 14035A   26180.51596591  .00000386  00000+0  95602-4 0  9991
2 40059  98.2020 121.6214 0001490  82.3797 277.7571 14.57120874637841
BRITE-PL2 (HEWELIUSZ)   
1 40119U 14049B   26180.55776096  .00001510  00000+0  14459-3 0  9997
2 40119  97.9110 292.6539 0015221  70.6240 289.6624 14.94638190643296
MMS 1                   
1 40482U 15011A   26180.58335647 -.00000975  00000+0  00000+0 0  9994
2 40482  72.2833 348.6564 8316824 167.6221 123.2126  0.28368149  1388
MMS 2                   
1 40483U 15011B   26180.58335647 -.00000976  00000+0  00000+0 0  9996
2 40483  72.2875 348.6554 8319683 167.6254 123.2020  0.28368247  1388
MMS 3                   
1 40484U 15011C   26180.58335647 -.00000975  00000+0  00000+0 0  9996
2 40484  72.2869 348.6673 8318001 167.6328 123.1767  0.28368110  1385
MMS 4                   
1 40485U 15011D   26180.58335647 -.00000975  00000+0  00000+0 0  9997
2 40485  72.2832 348.6506 8317909 167.6426 123.1698  0.28368126  1386
ASTROSAT                
1 40930U 15052A   26180.20061897  .00001642  00000+0  11799-3 0  9991
2 40930   5.9972  68.8667 0008265 210.7486 149.2157 14.82527211581613
DAMPE                   
1 41173U 15078A   26180.52283907  .00001604  00000+0  56375-4 0  9990
2 41173  97.4554 186.0506 0013231  38.7895 321.4293 15.30817912586435
PISAT                   
1 41784U 16059B   26180.54098683  .00000928  00000+0  16531-3 0  9992
2 41784  97.8180 180.4629 0029434 163.1720 197.0470 14.69004080521559
HXMT (HUIYAN)           
1 42758U 17034A   26180.30308036  .00004184  00000+0  20762-3 0  9997
2 42758  43.0141 115.5715 0032417 223.8490 135.9784 15.18561015499508
FLYING LAPTOP           
1 42831U 17042G   26180.51688700  .00003708  00000+0  29208-3 0  9995
2 42831  97.4736 335.5789 0019970  82.2271 278.1220 15.01224086488308
ZHANGHENG 1-01 (CSES-1) 
1 43194U 18015C   26180.50809608  .00006490  00000+0  29507-3 0  9993
2 43194  97.6873 346.4115 0017545 220.6538 139.3388 15.20967649466511
SALSAT                  
1 46495U 20068K   26179.98408402  .00006804  00000+0  23731-3 0  9990
2 46495  97.8845 183.7681 0007870 257.4321 102.6038 15.29961615317164
IXPE                    
1 49954U 21121A   26180.50003471  .00010333  00000+0  55593-3 0  9994
2 49954   0.2284 224.4340 0006999 262.1328 224.3688 15.10361740  5472
SMILE                   
1 69123U 26109A   26158.38327019 -.00000041  00000+0 -36778-3 0  9994
2 69123  69.9787 209.3069 3310191 288.5544  45.7342  7.54049028  2480
